ALOS (DAICHI)           
1 28931U 06002A   25350.84900716  .00001226  00000+0  21504-3 0  9996
2 28931  98.1096 302.3074 0001329 113.3671 246.7675 14.69499552 61316
H-2A R/B                
1 28932U 06002B   25350.94745530  .00008498  00000+0  44671-3 0  9997
2 28932  98.2313 126.0395 0054663 162.0939 198.2233 15.14655339 81900
RESURS-DK 1             
1 29228U 06021A   25350.99775288  .00002280  00000+0  13797-3 0  9993
2 29228  69.9336  90.8344 0006933 255.7353 104.3043 15.12185708 75027
CZ-4B R/B               
1 29507U 06046C   25350.99373701  .00004500  00000+0  23515-3 0  9990
2 29507  97.5736  31.1211 0033648 191.5264 168.5202 15.15916006 47518
CZ-2C R/B               
1 31114U 07010B   25350.94586418  .00000121  00000+0  74427-4 0  9999
2 31114  98.3975 103.3850 0059229 173.7449 186.4481 14.20211691967972
COSMO-SKYMED 1          
1 31598U 07023A   25351.00262899  .00003650  00000+0  33237-3 0  9994
2 31598  97.8834 176.4294 0001525  87.9521 272.1874 14.95799043  2548
COSMOS 2428             
1 31792U 07029A   25350.77384489  .00000130  00000+0  95650-4 0  9997
2 31792  70.9366  17.4099 0003891  17.7850 342.3406 14.12891092952380
SL-16 R/B               
1 31793U 07029B   25350.98611877  .00000079  00000+0  65734-4 0  9997
2 31793  70.9755 346.2311 0002011 261.7203 165.7680 14.14814999953676
KORONAS-FOTON           
1 33504U 09003A   25350.77977482  .00010586  00000+0  25266-3 0  9996
2 33504  82.4309   1.9197 0013413  95.8027 264.4749 15.41285190932964
CZ-2C R/B               
1 37731U 11030B   25350.84902696  .00001321  00000+0  17412-3 0  9999
2 37731  97.8417 304.8647 0051316 259.8769 153.5394 14.80915274777836
H-2A R/B                
1 38341U 12025E   25350.92479549  .00001761  00000+0  16656-3 0  9994
2 38341  98.4603 306.4777 0043965 222.3503 137.4318 14.94478073735851
SHIJIAN-16 (SJ-16)      
1 39358U 13057A   25351.02791145  .00001500  00000+0  15043-3 0  9990
2 39358  74.9731 341.5418 0017766 309.7242  50.2379 14.91998369659174
