CCSDS_OMM_VERS = 2.0
CREATION_DATE  = 
ORIGINATOR     = 

OBJECT_NAME    = ALOS (DAICHI)
OBJECT_ID      = 2006-002A
CENTER_NAME    = EARTH
REF_FRAME      = TEME
TIME_SYSTEM    = UTC
MEAN_ELEMENT_THEORY = SGP/SGP4

EPOCH          = 2025-12-16T20:22:34.218624
MEAN_MOTION    = 14.69499552
ECCENTRICITY   = .00013299
INCLINATION    = 98.1096
RA_OF_ASC_NODE = 302.3074
ARG_OF_PERICENTER = 113.3671
MEAN_ANOMALY   = 246.7675

EPHEMERIS_TYPE = 0
CLASSIFICATION_TYPE = U
NORAD_CAT_ID   = 28931
ELEMENT_SET_NO = 999
REV_AT_EPOCH   = 6131
BSTAR          = .21504422E-3
MEAN_MOTION_DOT = .1226E-4
MEAN_MOTION_DDOT = 0

CCSDS_OMM_VERS = 2.0
CREATION_DATE  = 
ORIGINATOR     = 

OBJECT_NAME    = H-2A R/B
OBJECT_ID      = 2006-002B
CENTER_NAME    = EARTH
REF_FRAME      = TEME
TIME_SYSTEM    = UTC
MEAN_ELEMENT_THEORY = SGP/SGP4

EPOCH          = 2025-12-16T22:44:20.137920
MEAN_MOTION    = 15.14655339
ECCENTRICITY   = .00546631
INCLINATION    = 98.2313
RA_OF_ASC_NODE = 126.0395
ARG_OF_PERICENTER = 162.0939
MEAN_ANOMALY   = 198.2233

EPHEMERIS_TYPE = 0
CLASSIFICATION_TYPE = U
NORAD_CAT_ID   = 28932
ELEMENT_SET_NO = 999
REV_AT_EPOCH   = 8190
BSTAR          = .44671271E-3
MEAN_MOTION_DOT = .8498E-4
MEAN_MOTION_DDOT = 0

CCSDS_OMM_VERS = 2.0
CREATION_DATE  = 
ORIGINATOR     = 

OBJECT_NAME    = RESURS-DK 1
OBJECT_ID      = 2006-021A
CENTER_NAME    = EARTH
REF_FRAME      = TEME
TIME_SYSTEM    = UTC
MEAN_ELEMENT_THEORY = SGP/SGP4

EPOCH          = 2025-12-16T23:56:45.848832
MEAN_MOTION    = 15.12185708
ECCENTRICITY   = .00069338
INCLINATION    = 69.9336
RA_OF_ASC_NODE = 90.8344
ARG_OF_PERICENTER = 255.7353
MEAN_ANOMALY   = 104.3043

EPHEMERIS_TYPE = 0
CLASSIFICATION_TYPE = U
NORAD_CAT_ID   = 29228
ELEMENT_SET_NO = 999
REV_AT_EPOCH   = 7502
BSTAR          = .13796725E-3
MEAN_MOTION_DOT = .228E-4
MEAN_MOTION_DDOT = 0

CCSDS_OMM_VERS = 2.0
CREATION_DATE  = 
ORIGINATOR     = 

OBJECT_NAME    = CZ-4B R/B
OBJECT_ID      = 2006-046C
CENTER_NAME    = EARTH
REF_FRAME      = TEME
TIME_SYSTEM    = UTC
MEAN_ELEMENT_THEORY = SGP/SGP4

EPOCH          = 2025-12-16T23:50:58.877664
MEAN_MOTION    = 15.15916006
ECCENTRICITY   = .00336485
INCLINATION    = 97.5736
RA_OF_ASC_NODE = 31.1211
ARG_OF_PERICENTER = 191.5264
MEAN_ANOMALY   = 168.5202

EPHEMERIS_TYPE = 0
CLASSIFICATION_TYPE = U
NORAD_CAT_ID   = 29507
ELEMENT_SET_NO = 999
REV_AT_EPOCH   = 4751
BSTAR          = .23514884E-3
MEAN_MOTION_DOT = .45E-4
MEAN_MOTION_DDOT = 0

CCSDS_OMM_VERS = 2.0
CREATION_DATE  = 
ORIGINATOR     = 

OBJECT_NAME    = CZ-2C R/B
OBJECT_ID      = 2007-010B
CENTER_NAME    = EARTH
REF_FRAME      = TEME
TIME_SYSTEM    = UTC
MEAN_ELEMENT_THEORY = SGP/SGP4

EPOCH          = 2025-12-16T22:42:02.665152
MEAN_MOTION    = 14.20211691
ECCENTRICITY   = .00592297
INCLINATION    = 98.3975
RA_OF_ASC_NODE = 103.3850
ARG_OF_PERICENTER = 173.7449
MEAN_ANOMALY   = 186.4481

EPHEMERIS_TYPE = 0
CLASSIFICATION_TYPE = U
NORAD_CAT_ID   = 31114
ELEMENT_SET_NO = 999
REV_AT_EPOCH   = 96797
BSTAR          = .74427464E-4
MEAN_MOTION_DOT = .121E-5
MEAN_MOTION_DDOT = 0

CCSDS_OMM_VERS = 2.0
CREATION_DATE  = 
ORIGINATOR     = 

OBJECT_NAME    = COSMO-SKYMED 1
OBJECT_ID      = 2007-023A
CENTER_NAME    = EARTH
REF_FRAME      = TEME
TIME_SYSTEM    = UTC
MEAN_ELEMENT_THEORY = SGP/SGP4

EPOCH          = 2025-12-17T00:03:47.144736
MEAN_MOTION    = 14.95799043
ECCENTRICITY   = .00015252
INCLINATION    = 97.8834
RA_OF_ASC_NODE = 176.4294
ARG_OF_PERICENTER = 87.9521
MEAN_ANOMALY   = 272.1874

EPHEMERIS_TYPE = 0
CLASSIFICATION_TYPE = U
NORAD_CAT_ID   = 31598
ELEMENT_SET_NO = 999
REV_AT_EPOCH   = 254
BSTAR          = .33236908E-3
MEAN_MOTION_DOT = .365E-4
MEAN_MOTION_DDOT = 0

CCSDS_OMM_VERS = 2.0
CREATION_DATE  = 
ORIGINATOR     = 

OBJECT_NAME    = COSMOS 2428
OBJECT_ID      = 2007-029A
CENTER_NAME    = EARTH
REF_FRAME      = TEME
TIME_SYSTEM    = UTC
MEAN_ELEMENT_THEORY = SGP/SGP4

EPOCH          = 2025-12-16T18:34:20.198496
MEAN_MOTION    = 14.12891092
ECCENTRICITY   = .00038911
INCLINATION    = 70.9366
RA_OF_ASC_NODE = 17.4099
ARG_OF_PERICENTER = 17.7850
MEAN_ANOMALY   = 342.3406

EPHEMERIS_TYPE = 0
CLASSIFICATION_TYPE = U
NORAD_CAT_ID   = 31792
ELEMENT_SET_NO = 999
REV_AT_EPOCH   = 95238
BSTAR          = .95650245E-4
MEAN_MOTION_DOT = .13E-5
MEAN_MOTION_DDOT = 0

CCSDS_OMM_VERS = 2.0
CREATION_DATE  = 
ORIGINATOR     = 

OBJECT_NAME    = SL-16 R/B
OBJECT_ID      = 2007-029B
CENTER_NAME    = EARTH
REF_FRAME      = TEME
TIME_SYSTEM    = UTC
MEAN_ELEMENT_THEORY = SGP/SGP4

EPOCH          = 2025-12-16T23:40:00.661728
MEAN_MOTION    = 14.14814999
ECCENTRICITY   = .00020115
INCLINATION    = 70.9755
RA_OF_ASC_NODE = 346.2311
ARG_OF_PERICENTER = 261.7203
MEAN_ANOMALY   = 165.7680

EPHEMERIS_TYPE = 0
CLASSIFICATION_TYPE = U
NORAD_CAT_ID   = 31793
ELEMENT_SET_NO = 999
REV_AT_EPOCH   = 95367
BSTAR          = .65733842E-4
MEAN_MOTION_DOT = .79E-6
MEAN_MOTION_DDOT = 0

CCSDS_OMM_VERS = 2.0
CREATION_DATE  = 
ORIGINATOR     = 

OBJECT_NAME    = KORONAS-FOTON
OBJECT_ID      = 2009-003A
CENTER_NAME    = EARTH
REF_FRAME      = TEME
TIME_SYSTEM    = UTC
MEAN_ELEMENT_THEORY = SGP/SGP4

EPOCH          = 2025-12-16T18:42:52.544448
MEAN_MOTION    = 15.41285190
ECCENTRICITY   = .00134137
INCLINATION    = 82.4309
RA_OF_ASC_NODE = 1.9197
ARG_OF_PERICENTER = 95.8027
MEAN_ANOMALY   = 264.4749

EPHEMERIS_TYPE = 0
CLASSIFICATION_TYPE = U
NORAD_CAT_ID   = 33504
ELEMENT_SET_NO = 999
REV_AT_EPOCH   = 93296
BSTAR          = .25265645E-3
MEAN_MOTION_DOT = .10586E-3
MEAN_MOTION_DDOT = 0

CCSDS_OMM_VERS = 2.0
CREATION_DATE  = 
ORIGINATOR     = 

OBJECT_NAME    = CZ-2C R/B
OBJECT_ID      = 2011-030B
CENTER_NAME    = EARTH
REF_FRAME      = TEME
TIME_SYSTEM    = UTC
MEAN_ELEMENT_THEORY = SGP/SGP4

EPOCH          = 2025-12-16T20:22:35.929344
MEAN_MOTION    = 14.80915274
ECCENTRICITY   = .00513161
INCLINATION    = 97.8417
RA_OF_ASC_NODE = 304.8647
ARG_OF_PERICENTER = 259.8769
MEAN_ANOMALY   = 153.5394

EPHEMERIS_TYPE = 0
CLASSIFICATION_TYPE = U
NORAD_CAT_ID   = 37731
ELEMENT_SET_NO = 999
REV_AT_EPOCH   = 77783
BSTAR          = .1741171E-3
MEAN_MOTION_DOT = .1321E-4
MEAN_MOTION_DDOT = 0

CCSDS_OMM_VERS = 2.0
CREATION_DATE  = 
ORIGINATOR     = 

OBJECT_NAME    = H-2A R/B
OBJECT_ID      = 2012-025E
CENTER_NAME    = EARTH
REF_FRAME      = TEME
TIME_SYSTEM    = UTC
MEAN_ELEMENT_THEORY = SGP/SGP4

EPOCH          = 2025-12-16T22:11:42.330336
MEAN_MOTION    = 14.94478073
ECCENTRICITY   = .00439652
INCLINATION    = 98.4603
RA_OF_ASC_NODE = 306.4777
ARG_OF_PERICENTER = 222.3503
MEAN_ANOMALY   = 137.4318

EPHEMERIS_TYPE = 0
CLASSIFICATION_TYPE = U
NORAD_CAT_ID   = 38341
ELEMENT_SET_NO = 999
REV_AT_EPOCH   = 73585
BSTAR          = .16655544E-3
MEAN_MOTION_DOT = .1761E-4
MEAN_MOTION_DDOT = 0

CCSDS_OMM_VERS = 2.0
CREATION_DATE  = 
ORIGINATOR     = 

OBJECT_NAME    = SHIJIAN-16 (SJ-16)
OBJECT_ID      = 2013-057A
CENTER_NAME    = EARTH
REF_FRAME      = TEME
TIME_SYSTEM    = UTC
MEAN_ELEMENT_THEORY = SGP/SGP4

EPOCH          = 2025-12-17T00:40:11.549280
MEAN_MOTION    = 14.91998369
ECCENTRICITY   = .00177668
INCLINATION    = 74.9731
RA_OF_ASC_NODE = 341.5418
ARG_OF_PERICENTER = 309.7242
MEAN_ANOMALY   = 50.2379

EPHEMERIS_TYPE = 0
CLASSIFICATION_TYPE = U
NORAD_CAT_ID   = 39358
ELEMENT_SET_NO = 999
REV_AT_EPOCH   = 65917
BSTAR          = .15043163E-3
MEAN_MOTION_DOT = .15E-4
MEAN_MOTION_DDOT = 0

